GALAXY 31 (G-31)        
1 54243U 22153A   26115.68567983 -.00000001  00000+0  00000+0 0  9998
2 54243   0.0390  70.6065 0001288 316.3593 312.5685  1.00271077  6602
GALAXY 32 (G-32)        
1 54244U 22153B   26115.40641748 -.00000188  00000+0  00000+0 0  9997
2 54244   0.0041 308.3699 0002820  71.5840 248.7748  1.00271122 12617
GALAXY 35 (G-35)        
1 54741U 22170A   26115.83381918 -.00000176  00000+0  00000+0 0  9992
2 54741   0.0211 134.8899 0001982 257.7124  28.3018  1.00271694 12361
GALAXY 36 (G-36)        
1 54742U 22170B   26115.86780985 -.00000199  00000+0  00000+0 0  9998
2 54742   0.0108 199.5307 0002690 224.1367  13.6215  1.00271553 12240
GALAXY 37 (G-37)        
1 57493U 23112A   26115.68455316  .00000000  00000+0  00000+0 0  9998
2 57493   0.0146 242.4893 0002134 148.3697 302.2829  1.00269886 10019
